start=new Date('2022-11-30T00:00:00.000Z').valueOf();
sats=[{"ECCENTRICITY":"0.00016770","DECAY_DATE":null,"FILE":"3673336","NORAD_CAT_ID":"48582","TIME_SYSTEM":"UTC","OBJECT_TYPE":"PAYLOAD","BSTAR":"-0.00001119100000","CLASSIFICATION_TYPE":"U","SEMIMAJOR_AXIS":"6925.408","MEAN_ANOMALY":"287.9739","EPHEMERIS_TYPE":"0","OBJECT_NAME":"STARLINK-2236","PERIOD":"95.593","CENTER_NAME":"EARTH","ELEMENT_SET_NO":"999","GP_ID":"219072515","TLE_LINE2":"2 48582  53.0564  66.5801 0001677  72.1433 287.9739 15.06380453 85406","TLE_LINE1":"1 48582U 21041AF  22333.52277001 -.00000448  00000-0 -11191-4 0  9997","REV_AT_EPOCH":"8540","SITE":"AFETR","PERIAPSIS":"546.112","ARG_OF_PERICENTER":"72.1433","MEAN_MOTION":"15.06380453","RA_OF_ASC_NODE":"66.5801","COUNTRY_CODE":"US","APOAPSIS":"548.435","MEAN_ELEMENT_THEORY":"SGP4","MEAN_MOTION_DOT":"-0.00000448","EPOCH":"2022-11-29T12:32:47.328864","OBJECT_ID":"2021-041AF","REF_FRAME":"TEME","RCS_SIZE":"LARGE","LAUNCH_DATE":"2021-05-15","INCLINATION":"53.0564","MEAN_MOTION_DDOT":"0.0000000000000"},{"SEMIMAJOR_AXIS":"6925.362","EPHEMERIS_TYPE":"0","MEAN_ANOMALY":"286.6609","PERIOD":"95.592","OBJECT_NAME":"STARLINK-2237","ELEMENT_SET_NO":"999","CENTER_NAME":"EARTH","DECAY_DATE":null,"ECCENTRICITY":"0.00015630","TIME_SYSTEM":"UTC","NORAD_CAT_ID":"48583","FILE":"3673849","OBJECT_TYPE":"PAYLOAD","BSTAR":"-0.00003353100000","CLASSIFICATION_TYPE":"U","APOAPSIS":"548.310","COUNTRY_CODE":"US","OBJECT_ID":"2021-041AG","EPOCH":"2022-11-29T15:51:06.425856","MEAN_MOTION_DOT":"-0.00000781","MEAN_ELEMENT_THEORY":"SGP4","RCS_SIZE":"LARGE","REF_FRAME":"TEME","MEAN_MOTION_DDOT":"0.0000000000000","INCLINATION":"53.0554","LAUNCH_DATE":"2021-05-15","TLE_LINE1":"1 48583U 21041AG  22333.66049104 -.00000781  00000-0 -33531-4 0  9996","TLE_LINE2":"2 48583  53.0554 110.8034 0001563  73.4552 286.6609 15.06395462 84796","GP_ID":"219109632","REV_AT_EPOCH":"8479","PERIAPSIS":"546.145","SITE":"AFETR","RA_OF_ASC_NODE":"110.8034","MEAN_MOTION":"15.06395462","ARG_OF_PERICENTER":"73.4552"},{"ELEMENT_SET_NO":"999","CENTER_NAME":"EARTH","PERIOD":"95.592","OBJECT_NAME":"STARLINK-2238","EPHEMERIS_TYPE":"0","MEAN_ANOMALY":"298.0042","SEMIMAJOR_AXIS":"6925.353","CLASSIFICATION_TYPE":"U","BSTAR":"0.00009784000000","OBJECT_TYPE":"PAYLOAD","TIME_SYSTEM":"UTC","NORAD_CAT_ID":"48584","FILE":"3673849","DECAY_DATE":null,"ECCENTRICITY":"0.00018090","MEAN_MOTION_DDOT":"0.0000000000000","INCLINATION":"53.0542","LAUNCH_DATE":"2021-05-15","RCS_SIZE":"LARGE","REF_FRAME":"TEME","OBJECT_ID":"2021-041AH","EPOCH":"2022-11-29T20:00:33.986016","MEAN_MOTION_DOT":"0.00001176","MEAN_ELEMENT_THEORY":"SGP4","APOAPSIS":"548.471","COUNTRY_CODE":"US","RA_OF_ASC_NODE":"110.0327","MEAN_MOTION":"15.06398499","ARG_OF_PERICENTER":"62.1130","PERIAPSIS":"545.965","SITE":"AFETR","REV_AT_EPOCH":"8481","TLE_LINE1":"1 48584U 21041AH  22333.83372669  .00001176  00000-0  97840-4 0  9991","TLE_LINE2":"2 48584  53.0542 110.0327 0001809  62.1130 298.0042 15.06398499 84815","GP_ID":"219110382"},{"RCS_SIZE":"LARGE","REF_FRAME":"TEME","MEAN_MOTION_DDOT":"0.0000000000000","INCLINATION":"53.0551","LAUNCH_DATE":"2021-05-15","APOAPSIS":"548.154","COUNTRY_CODE":"US","OBJECT_ID":"2021-041AJ","EPOCH":"2022-11-29T18:40:56.928288","MEAN_ELEMENT_THEORY":"SGP4","MEAN_MOTION_DOT":"-0.00000942","PERIAPSIS":"546.243","SITE":"AFETR","RA_OF_ASC_NODE":"110.2842","ARG_OF_PERICENTER":"81.2723","MEAN_MOTION":"15.06404935","TLE_LINE1":"1 48585U 21041AJ  22333.77843667 -.00000942  00000-0 -44379-4 0  9997","TLE_LINE2":"2 48585  53.0551 110.2842 0001380  81.2723 278.8422 15.06404935 84804","GP_ID":"219110634","REV_AT_EPOCH":"8480","PERIOD":"95.592","OBJECT_NAME":"STARLINK-2240","ELEMENT_SET_NO":"999","CENTER_NAME":"EARTH","SEMIMAJOR_AXIS":"6925.333","MEAN_ANOMALY":"278.8422","EPHEMERIS_TYPE":"0","OBJECT_TYPE":"PAYLOAD","BSTAR":"-0.00004437900000","CLASSIFICATION_TYPE":"U","DECAY_DATE":null,"ECCENTRICITY":"0.00013800","TIME_SYSTEM":"UTC","NORAD_CAT_ID":"48585","FILE":"3673849"},{"OBJECT_TYPE":"PAYLOAD","BSTAR":"0.00011376000000","CLASSIFICATION_TYPE":"U","ECCENTRICITY":"0.00014630","DECAY_DATE":null,"FILE":"3673849","NORAD_CAT_ID":"48586","TIME_SYSTEM":"UTC","OBJECT_NAME":"STARLINK-2241","PERIOD":"95.592","CENTER_NAME":"EARTH","ELEMENT_SET_NO":"999","SEMIMAJOR_AXIS":"6925.364","EPHEMERIS_TYPE":"0","MEAN_ANOMALY":"292.6269","SITE":"AFETR","PERIAPSIS":"546.216","MEAN_MOTION":"15.06394921","ARG_OF_PERICENTER":"67.4875","RA_OF_ASC_NODE":"110.3071","TLE_LINE2":"2 48586  53.0550 110.3071 0001463  67.4875 292.6269 15.06394921 84801","GP_ID":"219111384","TLE_LINE1":"1 48586U 21041AK  22333.77107000  .00001413  00000-0  11376-3 0  9994","REV_AT_EPOCH":"8480","REF_FRAME":"TEME","RCS_SIZE":"LARGE","INCLINATION":"53.0550","MEAN_MOTION_DDOT":"0.0000000000000","LAUNCH_DATE":"2021-05-15","COUNTRY_CODE":"US","APOAPSIS":"548.242","EPOCH":"2022-11-29T18:30:20.448000","MEAN_ELEMENT_THEORY":"SGP4","MEAN_MOTION_DOT":"0.00001413","OBJECT_ID":"2021-041AK"},{"SITE":"AFETR","PERIAPSIS":"546.567","ARG_OF_PERICENTER":"64.3554","MEAN_MOTION":"15.06413503","RA_OF_ASC_NODE":"110.2941","GP_ID":"219110132","TLE_LINE2":"2 48587  53.0542 110.2941 0000874  64.3554 295.7525 15.06413503 84800","TLE_LINE1":"1 48587U 21041AL  22333.77474644 -.00003583  00000-0 -22171-3 0  9993","REV_AT_EPOCH":"8480","REF_FRAME":"TEME","RCS_SIZE":"LARGE","LAUNCH_DATE":"2021-05-15","INCLINATION":"53.0542","MEAN_MOTION_DDOT":"0.0000000000000","COUNTRY_CODE":"US","APOAPSIS":"547.777","MEAN_ELEMENT_THEORY":"SGP4","MEAN_MOTION_DOT":"-0.00003583","EPOCH":"2022-11-29T18:35:38.092416","OBJECT_ID":"2021-041AL","OBJECT_TYPE":"PAYLOAD","BSTAR":"-0.00022171000000","CLASSIFICATION_TYPE":"U","ECCENTRICITY":"0.00008740","DECAY_DATE":null,"FILE":"3673849","NORAD_CAT_ID":"48587","TIME_SYSTEM":"UTC","OBJECT_NAME":"STARLINK-2242","PERIOD":"95.591","CENTER_NAME":"EARTH","ELEMENT_SET_NO":"999","SEMIMAJOR_AXIS":"6925.307","EPHEMERIS_TYPE":"0","MEAN_ANOMALY":"295.7525"},{"ARG_OF_PERICENTER":"81.9433","MEAN_MOTION":"15.06401458","RA_OF_ASC_NODE":"100.9913","SITE":"AFETR","PERIAPSIS":"546.324","REV_AT_EPOCH":"8492","GP_ID":"219109883","TLE_LINE2":"2 48588  53.0562 100.9913 0001278  81.9433 278.1701 15.06401458 84928","TLE_LINE1":"1 48588U 21041AM  22333.62086568  .00000249  00000-0  35589-4 0  9994","LAUNCH_DATE":"2021-05-15","INCLINATION":"53.0562","MEAN_MOTION_DDOT":"0.0000000000000","REF_FRAME":"TEME","RCS_SIZE":"LARGE","MEAN_ELEMENT_THEORY":"SGP4","MEAN_MOTION_DOT":"0.00000249","EPOCH":"2022-11-29T14:54:02.794752","OBJECT_ID":"2021-041AM","COUNTRY_CODE":"US","APOAPSIS":"548.094","CLASSIFICATION_TYPE":"U","OBJECT_TYPE":"PAYLOAD","BSTAR":"0.00003558900000","NORAD_CAT_ID":"48588","FILE":"3673849","TIME_SYSTEM":"UTC","ECCENTRICITY":"0.00012780","DECAY_DATE":null,"CENTER_NAME":"EARTH","ELEMENT_SET_NO":"999","OBJECT_NAME":"STARLINK-2244","PERIOD":"95.592","EPHEMERIS_TYPE":"0","MEAN_ANOMALY":"278.1701","SEMIMAJOR_AXIS":"6925.344"},{"OBJECT_ID":"2021-041AN","EPOCH":"2022-11-29T17:59:48.957216","MEAN_MOTION_DOT":"0.00001229","MEAN_ELEMENT_THEORY":"SGP4","APOAPSIS":"548.307","COUNTRY_CODE":"US","INCLINATION":"53.0542","MEAN_MOTION_DDOT":"0.0000000000000","LAUNCH_DATE":"2021-05-15","RCS_SIZE":"LARGE","REF_FRAME":"TEME","REV_AT_EPOCH":"8494","TLE_LINE1":"1 48589U 21041AN  22333.74987219  .00001229  00000-0  10141-3 0  9996","TLE_LINE2":"2 48589  53.0542 100.4049 0001563  70.6349 289.4809 15.06396521 84940","GP_ID":"219111134","RA_OF_ASC_NODE":"100.4049","MEAN_MOTION":"15.06396521","ARG_OF_PERICENTER":"70.6349","PERIAPSIS":"546.142","SITE":"AFETR","MEAN_ANOMALY":"289.4809","EPHEMERIS_TYPE":"0","SEMIMAJOR_AXIS":"6925.359","ELEMENT_SET_NO":"999","CENTER_NAME":"EARTH","PERIOD":"95.592","OBJECT_NAME":"STARLINK-2245","TIME_SYSTEM":"UTC","NORAD_CAT_ID":"48589","FILE":"3673849","DECAY_DATE":null,"ECCENTRICITY":"0.00015630","CLASSIFICATION_TYPE":"U","BSTAR":"0.00010141000000","OBJECT_TYPE":"PAYLOAD"},{"REV_AT_EPOCH":"8581","TLE_LINE2":"2 48591  53.0538 101.3732 0001269  75.5403 284.5727 15.06408337 85816","GP_ID":"219110885","TLE_LINE1":"1 48591U 21041AQ  22333.53515153 -.00000471  00000-0 -12711-4 0  9996","ARG_OF_PERICENTER":"75.5403","MEAN_MOTION":"15.06408337","RA_OF_ASC_NODE":"101.3732","SITE":"AFETR","PERIAPSIS":"546.309","EPOCH":"2022-11-29T12:50:37.092192","MEAN_MOTION_DOT":"-0.00000471","MEAN_ELEMENT_THEORY":"SGP4","OBJECT_ID":"2021-041AQ","COUNTRY_CODE":"US","APOAPSIS":"548.067","INCLINATION":"53.0538","MEAN_MOTION_DDOT":"0.0000000000000","LAUNCH_DATE":"2021-05-15","REF_FRAME":"TEME","RCS_SIZE":"LARGE","NORAD_CAT_ID":"48591","FILE":"3673849","TIME_SYSTEM":"UTC","ECCENTRICITY":"0.00012690","DECAY_DATE":null,"CLASSIFICATION_TYPE":"U","BSTAR":"-0.00001271100000","OBJECT_TYPE":"PAYLOAD","EPHEMERIS_TYPE":"0","MEAN_ANOMALY":"284.5727","SEMIMAJOR_AXIS":"6925.323","CENTER_NAME":"EARTH","ELEMENT_SET_NO":"999","OBJECT_NAME":"STARLINK-2248","PERIOD":"95.592"},{"NORAD_CAT_ID":"48592","FILE":"3673849","TIME_SYSTEM":"UTC","ECCENTRICITY":"0.00014530","DECAY_DATE":null,"CLASSIFICATION_TYPE":"U","BSTAR":"-0.00018995000000","OBJECT_TYPE":"PAYLOAD","EPHEMERIS_TYPE":"0","MEAN_ANOMALY":"290.6982","SEMIMAJOR_AXIS":"6925.314","CENTER_NAME":"EARTH","ELEMENT_SET_NO":"999","OBJECT_NAME":"STARLINK-2249","PERIOD":"95.591","REV_AT_EPOCH":"8477","GP_ID":"219109633","TLE_LINE2":"2 48592  53.0559 111.3643 0001453  69.4163 290.6982 15.06411206 84776","TLE_LINE1":"1 48592U 21041AR  22333.54528932 -.00003110  00000-0 -18995-3 0  9999","ARG_OF_PERICENTER":"69.4163","MEAN_MOTION":"15.06411206","RA_OF_ASC_NODE":"111.3643","SITE":"AFETR","PERIAPSIS":"546.173","MEAN_MOTION_DOT":"-0.00003110","MEAN_ELEMENT_THEORY":"SGP4","EPOCH":"2022-11-29T13:05:12.997248","OBJECT_ID":"2021-041AR","COUNTRY_CODE":"US","APOAPSIS":"548.185","LAUNCH_DATE":"2021-05-15","INCLINATION":"53.0559","MEAN_MOTION_DDOT":"0.0000000000000","REF_FRAME":"TEME","RCS_SIZE":"MEDIUM"}];
